TIANWANG 1C (TW-1C)     
1 40926U 15051B   17234.86408944  .00008926  00000-0  20047-3 0  9994
2 40926  97.2251 273.9253 0009424 290.6081 180.1568 15.43547975107204
TIANWANG 1B (TW-1B)     
1 40927U 15051C   17234.78400941  .00009108  00000-0  21232-3 0  9995
2 40927  97.2343 273.8333 0009410 302.9737 147.1529 15.42427340107139
TIANWANG 1A (TW-1A)     
1 40928U 15051D   17234.78898815  .00004313  00000-0  12304-3 0  9990
2 40928  97.2227 269.4055 0011541 326.2629 147.6282 15.36520108106926
LAPAN-A2 (IO-86)        
1 40931U 15052B   17234.44023905  .00000728  00000-0  12386-4 0  9995
2 40931   5.9970 120.2870 0012955 100.5861 259.5723 14.76537266102779
LQSAT                   
1 40958U 15057A   17234.75235032  .00000033  00000-0  12918-4 0  9999
2 40958  97.9740 308.8952 0017383 209.1201 150.9041 14.72978263100916
CHUBUSAT-2              
1 41338U 16012B   17234.84101432  .00000433  00000-0  27340-4 0  9999
2 41338  31.0042  48.9264 0013953 358.5184   1.5408 14.99776308 83002
CHUBUSAT-3              
1 41339U 16012C   17234.82671371  .00000411  00000-0  25497-4 0  9999
2 41339  31.0120  48.0543 0013963   5.2030 354.8764 14.99978886 82988
OUFTI-1                 
1 41458U 16025C   17234.87449683  .00003411  00000-0  18366-3 0  9998
2 41458  98.1777 276.2649 0174612  67.0926 294.8631 15.03393990 72598
E-ST@R-II               
1 41459U 16025D   17234.56989586  .00003089  00000-0  16634-3 0  9993
2 41459  98.1812 275.8841 0176514  68.3864 293.6064 15.03231544 72544
AAUSAT 4                
1 41460U 16025E   17234.79284675  .00004764  00000-0  25488-3 0  9995
2 41460  98.1742 276.2561 0167947  65.7015 296.1605 15.04200850 72604
NUSAT 1 (LO-87)         
1 41557U 16033B   17234.65201065  .00002232  00000-0  86208-4 0  9994
2 41557  97.4606 314.1663 0015605 129.2905 230.9721 15.27229298 68572
BEESAT-4                
1 41619U 16040W   17234.64427715  .00002105  00000-0  98111-4 0  9997
2 41619  97.4571 296.3781 0011815 188.1531 171.9514 15.20945314 52699
PRATHAM                 
1 41783U 16059A   17234.64628186  .00000071  00000-0  23274-4 0  9992
2 41783  98.1615 295.3127 0032598 314.0730  45.7789 14.62851164 48313
ALSAT 1N                
1 41789U 16059G   17234.71649686  .00000066  00000-0  21832-4 0  9996
2 41789  98.1619 296.0121 0027499 308.3860  51.4869 14.64065468 48341
NAYIF-1 (EO-88)         
1 42017U 17008BX  17234.59301172  .00002386  00000-0  10391-3 0  9991
2 42017  97.4898 295.9093 0006344   4.2438 355.8851 15.23187404 28590
LILACSAT-1              
1 42725U 98067ME  17234.63733777  .00016068  00000-0  22917-3 0  9995
2 42725  51.6396  66.1546 0006841 193.3761 166.7051 15.56438325 13821
MAX VALIER SAT          
1 42778U 17036P   17234.82069871  .00001582  00000-0  75525-4 0  9997
2 42778  97.4464 293.8605 0013885  40.7056 319.5214 15.20457474  9153
